STARLINK-31310          
1 59092U 24041U   26068.01707652  .00018272  00000+0  67356-3 0  9995
2 59092  43.0031 314.9263 0003151 243.6579 116.3950 15.27495203114168
YAM-7                   
1 60504U 24149AN  26068.71799904  .00009009  00000+0  30984-3 0  9997
2 60504  97.3828 149.4631 0001973 296.5121  63.5918 15.30304554 86835
